{"type": "FeatureCollection", "features": [ {"type": "Feature", "properties": {"norad_id": 39111, "name": "COSMOS 2251 DEB", "group": "cosmos-2251-debris", "lat": 47.178686119966684, "lon": 47.616379086335265, "alt_km": 511.0263095166647, "timestamp": "2025-12-18T07:01:54.987883+00:00", "meta": {"OBJECT_NAME": "COSMOS 2251 DEB", "OBJECT_ID": "1993-036BUA", "EPOCH": "2025-12-01T22:58:55.551360", "MEAN_MOTION": 15.11912111, "ECCENTRICITY": 0.00109111, "INCLINATION": 74.0059, "RA_OF_ASC_NODE": 63.5328, "ARG_OF_PERICENTER": 39.1207, "MEAN_ANOMALY": 321.0773, "EPHEMERIS_TYPE": 0, "CLASSIFICATION_TYPE": "U", "NORAD_CAT_ID": 39111, "ELEMENT_SET_NO": 999, "REV_AT_EPOCH": 8982, "BSTAR": 0.0056424119, "MEAN_MOTION_DOT": 0.00098096, "MEAN_MOTION_DDOT": 0}, "tle": {"line1": "1 39111U 93036BUA 25335.95758740  .00098096  00000+0  56424-2 0  9993", "line2": "2 39111  74.0059  63.5328 0010911  39.1207 321.0773 15.11912111 89826"}}, "geometry": {"type": "Point", "coordinates": [47.616379086335265, 47.178686119966684]}}, {"type": "Feature", "properties": {"norad_id": 39546, "name": "COSMOS 2251 DEB", "group": "cosmos-2251-debris", "lat": 67.93441048606094, "lon": 170.69292660357314, "alt_km": 610.721513841334, "timestamp": "2025-12-18T07:01:54.987894+00:00", "meta": {"OBJECT_NAME": "COSMOS 2251 DEB", "OBJECT_ID": "1993-036BUC", "EPOCH": "2025-12-16T03:12:27.285696", "MEAN_MOTION": 14.92150087, "ECCENTRICITY": 0.00441533, "INCLINATION": 73.9967, "RA_OF_ASC_NODE": 129.9626, "ARG_OF_PERICENTER": 289.5542, "MEAN_ANOMALY": 70.0875, "EPHEMERIS_TYPE": 0, "CLASSIFICATION_TYPE": "U", "NORAD_CAT_ID": 39546, "ELEMENT_SET_NO": 999, "REV_AT_EPOCH": 64487, "BSTAR": 0.001062699, "MEAN_MOTION_DOT": 0.00010998, "MEAN_MOTION_DDOT": 0}, "tle": {"line1": "1 39546U 93036BUC 25350.13364914  .00010998  00000+0  10627-2 0  9998", "line2": "2 39546  73.9967 129.9626 0044153 289.5542  70.0875 14.92150087644870"}}, "geometry": {"type": "Point", "coordinates": [170.69292660357314, 67.93441048606094]}}, {"type": "Feature", "properties": {"norad_id": 39547, "name": "COSMOS 2251 DEB", "group": "cosmos-2251-debris", "lat": -63.77219530212811, "lon": -28.606265187005068, "alt_km": 561.4367836482588, "timestamp": "2025-12-18T07:01:54.987903+00:00", "meta": {"OBJECT_NAME": "COSMOS 2251 DEB", "OBJECT_ID": "1993-036BUD", "EPOCH": "2025-12-16T19:23:25.702368", "MEAN_MOTION": 15.03569393, "ECCENTRICITY": 0.00056026, "INCLINATION": 74.0017, "RA_OF_ASC_NODE": 10.0509, "ARG_OF_PERICENTER": 8.7328, "MEAN_ANOMALY": 167.2284, "EPHEMERIS_TYPE": 0, "CLASSIFICATION_TYPE": "U", "NORAD_CAT_ID": 39547, "ELEMENT_SET_NO": 999, "REV_AT_EPOCH": 64086, "BSTAR": 0.0020053812, "MEAN_MOTION_DOT": 0.00027477, "MEAN_MOTION_DDOT": 0}, "tle": {"line1": "1 39547U 93036BUD 25350.80793637  .00027477  00000+0  20054-2 0  9996", "line2": "2 39547  74.0017  10.0509 0005602   8.7328 167.2284 15.03569393640863"}}, "geometry": {"type": "Point", "coordinates": [-28.606265187005068, -63.77219530212811]}}, {"type": "Feature", "properties": {"norad_id": 39553, "name": "COSMOS 2251 DEB", "group": "cosmos-2251-debris", "lat": -12.006632328702349, "lon": 143.89753474206734, "alt_km": 913.5567588658078, "timestamp": "2025-12-18T07:01:54.987913+00:00", "meta": {"OBJECT_NAME": "COSMOS 2251 DEB", "OBJECT_ID": "1993-036BUK", "EPOCH": "2025-12-07T06:00:50.455872", "MEAN_MOTION": 13.99876591, "ECCENTRICITY": 0.02014092, "INCLINATION": 74.0304, "RA_OF_ASC_NODE": 339.5232, "ARG_OF_PERICENTER": 116.8065, "MEAN_ANOMALY": 245.3825, "EPHEMERIS_TYPE": 0, "CLASSIFICATION_TYPE": "U", "NORAD_CAT_ID": 39553, "ELEMENT_SET_NO": 999, "REV_AT_EPOCH": 75540, "BSTAR": 0.00088887208, "MEAN_MOTION_DOT": 1.532e-05, "MEAN_MOTION_DDOT": 0}, "tle": {"line1": "1 39553U 93036BUK 25341.25058398  .00001532  00000+0  88887-3 0  9993", "line2": "2 39553  74.0304 339.5232 0201409 116.8065 245.3825 13.99876591755403"}}, "geometry": {"type": "Point", "coordinates": [143.89753474206734, -12.006632328702349]}}, {"type": "Feature", "properties": {"norad_id": 39554, "name": "COSMOS 2251 DEB", "group": "cosmos-2251-debris", "lat": -73.10337473323949, "lon": -177.51929088823388, "alt_km": 540.5812120344735, "timestamp": "2025-12-18T07:01:54.987923+00:00", "meta": {"OBJECT_NAME": "COSMOS 2251 DEB", "OBJECT_ID": "1993-036BUL", "EPOCH": "2025-12-10T06:12:03.924864", "MEAN_MOTION": 15.10130993, "ECCENTRICITY": 0.0002993, "INCLINATION": 74.0187, "RA_OF_ASC_NODE": 269.7383, "ARG_OF_PERICENTER": 74.7531, "MEAN_ANOMALY": 81.5927, "EPHEMERIS_TYPE": 0, "CLASSIFICATION_TYPE": "U", "NORAD_CAT_ID": 39554, "ELEMENT_SET_NO": 999, "REV_AT_EPOCH": 64347, "BSTAR": 0.0046896, "MEAN_MOTION_DOT": 0.000773, "MEAN_MOTION_DDOT": 0}, "tle": {"line1": "1 39554U 93036BUL 25344.25837876  .00077300  00000+0  46896-2 0  9992", "line2": "2 39554  74.0187 269.7383 0002993  74.7531  81.5927 15.10130993643471"}}, "geometry": {"type": "Point", "coordinates": [-177.51929088823388, -73.10337473323949]}}, {"type": "Feature", "properties": {"norad_id": 39583, "name": "COSMOS 2251 DEB", "group": "cosmos-2251-debris", "lat": 28.476818033881422, "lon": -114.45480154008516, "alt_km": 616.2435995534306, "timestamp": "2025-12-18T07:01:54.987933+00:00", "meta": {"OBJECT_NAME": "COSMOS 2251 DEB", "OBJECT_ID": "1993-036BUN", "EPOCH": "2025-12-16T23:39:55.771488", "MEAN_MOTION": 14.60519983, "ECCENTRICITY": 0.01368963, "INCLINATION": 73.9326, "RA_OF_ASC_NODE": 239.0626, "ARG_OF_PERICENTER": 351.6051, "MEAN_ANOMALY": 8.2822, "EPHEMERIS_TYPE": 0, "CLASSIFICATION_TYPE": "U", "NORAD_CAT_ID": 39583, "ELEMENT_SET_NO": 999, "REV_AT_EPOCH": 61841, "BSTAR": 0.0012891969, "MEAN_MOTION_DOT": 7.116e-05, "MEAN_MOTION_DDOT": 0}, "tle": {"line1": "1 39583U 93036BUN 25350.98606217  .00007116  00000+0  12892-2 0  9991", "line2": "2 39583  73.9326 239.0626 0136896 351.6051   8.2822 14.60519983618410"}}, "geometry": {"type": "Point", "coordinates": [-114.45480154008516, 28.476818033881422]}}, {"type": "Feature", "properties": {"norad_id": 39585, "name": "COSMOS 2251 DEB", "group": "cosmos-2251-debris", "lat": 1.6381544661840564, "lon": 110.27651354830247, "alt_km": 728.2822413523636, "timestamp": "2025-12-18T07:01:54.987943+00:00", "meta": {"OBJECT_NAME": "COSMOS 2251 DEB", "OBJECT_ID": "1993-036BUQ", "EPOCH": "2025-12-17T13:45:47.587680", "MEAN_MOTION": 14.58681164, "ECCENTRICITY": 0.00655713, "INCLINATION": 74.0421, "RA_OF_ASC_NODE": 292.1145, "ARG_OF_PERICENTER": 51.6529, "MEAN_ANOMALY": 309.0503, "EPHEMERIS_TYPE": 0, "CLASSIFICATION_TYPE": "U", "NORAD_CAT_ID": 39585, "ELEMENT_SET_NO": 999, "REV_AT_EPOCH": 62591, "BSTAR": 0.00024435975, "MEAN_MOTION_DOT": 1.143e-05, "MEAN_MOTION_DDOT": 0}, "tle": {"line1": "1 39585U 93036BUQ 25351.57346745  .00001143  00000+0  24436-3 0  9998", "line2": "2 39585  74.0421 292.1145 0065571  51.6529 309.0503 14.58681164625913"}}, "geometry": {"type": "Point", "coordinates": [110.27651354830247, 1.6381544661840564]}}, {"type": "Feature", "properties": {"norad_id": 39586, "name": "COSMOS 2251 DEB", "group": "cosmos-2251-debris", "lat": -52.97676419898566, "lon": -164.0694113220598, "alt_km": 778.4716884231611, "timestamp": "2025-12-18T07:01:54.987953+00:00", "meta": {"OBJECT_NAME": "COSMOS 2251 DEB", "OBJECT_ID": "1993-036BUR", "EPOCH": "2025-12-15T23:50:08.053728", "MEAN_MOTION": 14.21232237, "ECCENTRICITY": 0.01008868, "INCLINATION": 74.0082, "RA_OF_ASC_NODE": 222.4068, "ARG_OF_PERICENTER": 356.2296, "MEAN_ANOMALY": 66.1426, "EPHEMERIS_TYPE": 0, "CLASSIFICATION_TYPE": "U", "NORAD_CAT_ID": 39586, "ELEMENT_SET_NO": 999, "REV_AT_EPOCH": 61018, "BSTAR": 0.00043436803, "MEAN_MOTION_DOT": 9.7e-06, "MEAN_MOTION_DDOT": 0}, "tle": {"line1": "1 39586U 93036BUR 25349.99314877  .00000970  00000+0  43437-3 0  9992", "line2": "2 39586  74.0082 222.4068 0100886 356.2296  66.1426 14.21232237610182"}}, "geometry": {"type": "Point", "coordinates": [-164.0694113220598, -52.97676419898566]}}, {"type": "Feature", "properties": {"norad_id": 39591, "name": "COSMOS 2251 DEB", "group": "cosmos-2251-debris", "lat": -59.984240838895005, "lon": 86.2012534280715, "alt_km": 764.1949452051222, "timestamp": "2025-12-18T07:01:54.987963+00:00", "meta": {"OBJECT_NAME": "COSMOS 2251 DEB", "OBJECT_ID": "1993-036BUW", "EPOCH": "2025-12-16T09:29:52.077696", "MEAN_MOTION": 14.41820254, "ECCENTRICITY": 0.00293402, "INCLINATION": 74.0195, "RA_OF_ASC_NODE": 239.9819, "ARG_OF_PERICENTER": 351.9652, "MEAN_ANOMALY": 128.7206, "EPHEMERIS_TYPE": 0, "CLASSIFICATION_TYPE": "U", "NORAD_CAT_ID": 39591, "ELEMENT_SET_NO": 999, "REV_AT_EPOCH": 61829, "BSTAR": 0.00026614281, "MEAN_MOTION_DOT": 8.48e-06, "MEAN_MOTION_DDOT": 0}, "tle": {"line1": "1 39591U 93036BUW 25350.39574164  .00000848  00000+0  26614-3 0  9993", "line2": "2 39591  74.0195 239.9819 0029340 351.9652 128.7206 14.41820254618298"}}, "geometry": {"type": "Point", "coordinates": [86.2012534280715, -59.984240838895005]}}, {"type": "Feature", "properties": {"norad_id": 40218, "name": "COSMOS 2251 DEB", "group": "cosmos-2251-debris", "lat": 43.32828476795507, "lon": 42.86592057801742, "alt_km": 761.1832676645909, "timestamp": "2025-12-18T07:01:54.987973+00:00", "meta": {"OBJECT_NAME": "COSMOS 2251 DEB", "OBJECT_ID": "1993-036BUX", "EPOCH": "2025-12-14T10:48:31.251744", "MEAN_MOTION": 14.41597705, "ECCENTRICITY": 0.00168728, "INCLINATION": 74.0298, "RA_OF_ASC_NODE": 245.6562, "ARG_OF_PERICENTER": 328.6, "MEAN_ANOMALY": 31.4147, "EPHEMERIS_TYPE": 0, "CLASSIFICATION_TYPE": "U", "NORAD_CAT_ID": 40218, "ELEMENT_SET_NO": 999, "REV_AT_EPOCH": 58886, "BSTAR": 0.00046023204, "MEAN_MOTION_DOT": 1.474e-05, "MEAN_MOTION_DDOT": 0}, "tle": {"line1": "1 40218U 93036BUX 25348.45036171  .00001474  00000+0  46023-3 0  9998", "line2": "2 40218  74.0298 245.6562 0016872 328.6000  31.4147 14.41597705588868"}}, "geometry": {"type": "Point", "coordinates": [42.86592057801742, 43.32828476795507]}}]}